{
  "type": "FeatureCollection",
  "features": [
    {
      "type": "Feature",
      "properties": {
        "norad_id": 33412,
        "name": "COSMO-SKYMED 3",
        "group": "resource",
        "lat": 81.53870507165013,
        "lon": 119.83266790049609,
        "alt_km": 548.3422024560214,
        "timestamp": "2025-12-03T13:52:09.221891+00:00",
        "meta_object_name": "COSMO-SKYMED 3",
        "meta_object_id": "2008-054A",
        "meta_epoch": "2025-12-03T08:41:51.005760",
        "meta_mean_motion": 15.05209912,
        "meta_eccentricity": 0.00154151,
        "meta_inclination": 97.8469,
        "meta_ra_of_asc_node": 187.5968,
        "meta_arg_of_pericenter": 205.1681,
        "meta_mean_anomaly": 154.8796,
        "meta_ephemeris_type": 0,
        "meta_classification_type": "U",
        "meta_norad_cat_id": 33412,
        "meta_element_set_no": 999,
        "meta_rev_at_epoch": 92746,
        "meta_bstar": 0.00043702292,
        "meta_mean_motion_dot": 6.189e-05,
        "meta_mean_motion_ddot": 0,
        "tle_line1": "1 33412U 08054A   25337.36239590  .00006189  00000+0  43702-3 0  9999",
        "tle_line2": "2 33412  97.8469 187.5968 0015415 205.1681 154.8796 15.05209912927463"
      },
      "geometry": {
        "type": "Point",
        "coordinates": [
          119.83266790049609,
          81.53870507165013
        ]
      }
    },
    {
      "type": "Feature",
      "properties": {
        "norad_id": 33446,
        "name": "YAOGAN-4",
        "group": "resource",
        "lat": 81.29623708388816,
        "lon": 153.13543832759188,
        "alt_km": 615.2532149540875,
        "timestamp": "2025-12-03T13:52:09.221902+00:00",
        "meta_object_name": "YAOGAN-4",
        "meta_object_id": "2008-061A",
        "meta_epoch": "2025-12-03T06:58:13.276416",
        "meta_mean_motion": 14.82633768,
        "meta_eccentricity": 0.00144144,
        "meta_inclination": 97.917,
        "meta_ra_of_asc_node": 267.4833,
        "meta_arg_of_pericenter": 354.9105,
        "meta_mean_anomaly": 5.1959,
        "meta_ephemeris_type": 0,
        "meta_classification_type": "U",
        "meta_norad_cat_id": 33446,
        "meta_element_set_no": 999,
        "meta_rev_at_epoch": 91663,
        "meta_bstar": 0.0002872803,
        "meta_mean_motion_dot": 2.264e-05,
        "meta_mean_motion_ddot": 0,
        "tle_line1": "1 33446U 08061A   25337.29043144  .00002264  00000+0  28728-3 0  9995",
        "tle_line2": "2 33446  97.9170 267.4833 0014414 354.9105   5.1959 14.82633768916631"
      },
      "geometry": {
        "type": "Point",
        "coordinates": [
          153.13543832759188,
          81.29623708388816
        ]
      }
    },
    {
      "type": "Feature",
      "properties": {
        "norad_id": 33492,
        "name": "GOSAT (IBUKI)",
        "group": "resource",
        "lat": -74.60278609121735,
        "lon": 117.34806837343358,
        "alt_km": 676.8639443272468,
        "timestamp": "2025-12-03T13:52:09.221913+00:00",
        "meta_object_name": "GOSAT (IBUKI)",
        "meta_object_id": "2009-002A",
        "meta_epoch": "2025-12-03T06:02:13.929504",
        "meta_mean_motion": 14.67550956,
        "meta_eccentricity": 9.877e-05,
        "meta_inclination": 98.0767,
        "meta_ra_of_asc_node": 85.9869,
        "meta_arg_of_pericenter": 84.3385,
        "meta_mean_anomaly": 275.7932,
        "meta_ephemeris_type": 0,
        "meta_classification_type": "U",
        "meta_norad_cat_id": 33492,
        "meta_element_set_no": 999,
        "meta_rev_at_epoch": 90272,
        "meta_bstar": 0.00025866975,
        "meta_mean_motion_dot": 1.419e-05,
        "meta_mean_motion_ddot": 0,
        "tle_line1": "1 33492U 09002A   25337.25155011  .00001419  00000+0  25867-3 0  9997",
        "tle_line2": "2 33492  98.0767  85.9869 0000987  84.3385 275.7932 14.67550956902723"
      },
      "geometry": {
        "type": "Point",
        "coordinates": [
          117.34806837343358,
          -74.60278609121735
        ]
      }
    },
    {
      "type": "Feature",
      "properties": {
        "norad_id": 35681,
        "name": "DEIMOS-1",
        "group": "resource",
        "lat": 61.341078241128464,
        "lon": -27.0315093655548,
        "alt_km": 637.6706190533023,
        "timestamp": "2025-12-03T13:52:09.221924+00:00",
        "meta_object_name": "DEIMOS-1",
        "meta_object_id": "2009-041A",
        "meta_epoch": "2025-12-03T08:27:12.132864",
        "meta_mean_motion": 14.74929048,
        "meta_eccentricity": 0.00026756,
        "meta_inclination": 97.7146,
        "meta_ra_of_asc_node": 138.3931,
        "meta_arg_of_pericenter": 96.9204,
        "meta_mean_anomaly": 263.231,
        "meta_ephemeris_type": 0,
        "meta_classification_type": "U",
        "meta_norad_cat_id": 35681,
        "meta_element_set_no": 999,
        "meta_rev_at_epoch": 87801,
        "meta_bstar": 0.00016892482,
        "meta_mean_motion_dot": 1.087e-05,
        "meta_mean_motion_ddot": 0,
        "tle_line1": "1 35681U 09041A   25337.35222376  .00001087  00000+0  16892-3 0  9991",
        "tle_line2": "2 35681  97.7146 138.3931 0002675  96.9204 263.2310 14.74929048878016"
      },
      "geometry": {
        "type": "Point",
        "coordinates": [
          -27.0315093655548,
          61.341078241128464
        ]
      }
    },
    {
      "type": "Feature",
      "properties": {
        "norad_id": 35682,
        "name": "DUBAISAT-1",
        "group": "resource",
        "lat": 63.0286462800213,
        "lon": 92.395451262255,
        "alt_km": 638.9644157458906,
        "timestamp": "2025-12-03T13:52:09.221935+00:00",
        "meta_object_name": "DUBAISAT-1",
        "meta_object_id": "2009-041B",
        "meta_epoch": "2025-12-03T08:41:38.285952",
        "meta_mean_motion": 14.74559668,
        "meta_eccentricity": 0.00101676,
        "meta_inclination": 97.9784,
        "meta_ra_of_asc_node": 108.1807,
        "meta_arg_of_pericenter": 346.4691,
        "meta_mean_anomaly": 13.6243,
        "meta_ephemeris_type": 0,
        "meta_classification_type": "U",
        "meta_norad_cat_id": 35682,
        "meta_element_set_no": 999,
        "meta_rev_at_epoch": 87623,
        "meta_bstar": 0.00028341372,
        "meta_mean_motion_dot": 1.838e-05,
        "meta_mean_motion_ddot": 0,
        "tle_line1": "1 35682U 09041B   25337.36224868  .00001838  00000+0  28341-3 0  9997",
        "tle_line2": "2 35682  97.9784 108.1807 0010167 346.4691  13.6243 14.74559668876233"
      },
      "geometry": {
        "type": "Point",
        "coordinates": [
          92.395451262255,
          63.0286462800213
        ]
      }
    },
    {
      "type": "Feature",
      "properties": {
        "norad_id": 35931,
        "name": "OCEANSAT-2",
        "group": "resource",
        "lat": -10.572108540779139,
        "lon": 157.56090498151346,
        "alt_km": 905.6063849835164,
        "timestamp": "2025-12-03T13:52:09.221946+00:00",
        "meta_object_name": "OCEANSAT-2",
        "meta_object_id": "2009-051A",
        "meta_epoch": "2025-12-03T07:48:57.886272",
        "meta_mean_motion": 13.99626673,
        "meta_eccentricity": 0.00166046,
        "meta_inclination": 98.2231,
        "meta_ra_of_asc_node": 338.8808,
        "meta_arg_of_pericenter": 69.5066,
        "meta_mean_anomaly": 290.7881,
        "meta_ephemeris_type": 0,
        "meta_classification_type": "U",
        "meta_norad_cat_id": 35931,
        "meta_element_set_no": 999,
        "meta_rev_at_epoch": 85193,
        "meta_bstar": -7.3885464e-05,
        "meta_mean_motion_dot": -1.45e-06,
        "meta_mean_motion_ddot": 0,
        "tle_line1": "1 35931U 09051A   25337.32566998 -.00000145  00000+0 -73885-4 0  9990",
        "tle_line2": "2 35931  98.2231 338.8808 0016604  69.5066 290.7881 13.99626673851938"
      },
      "geometry": {
        "type": "Point",
        "coordinates": [
          157.56090498151346,
          -10.572108540779139
        ]
      }
    },
    {
      "type": "Feature",
      "properties": {
        "norad_id": 35946,
        "name": "WORLDVIEW-2 (WV-2)",
        "group": "resource",
        "lat": 40.53089519963877,
        "lon": -123.88375883980592,
        "alt_km": 760.5790445032417,
        "timestamp": "2025-12-03T13:52:09.221957+00:00",
        "meta_object_name": "WORLDVIEW-2 (WV-2)",
        "meta_object_id": "2009-055A",
        "meta_epoch": "2025-12-03T08:12:54.012384",
        "meta_mean_motion": 14.37645626,
        "meta_eccentricity": 0.00054428,
        "meta_inclination": 98.4771,
        "meta_ra_of_asc_node": 48.5579,
        "meta_arg_of_pericenter": 89.3976,
        "meta_mean_anomaly": 270.7835,
        "meta_ephemeris_type": 0,
        "meta_classification_type": "U",
        "meta_norad_cat_id": 35946,
        "meta_element_set_no": 999,
        "meta_rev_at_epoch": 84750,
        "meta_bstar": 0.0001147151,
        "meta_mean_motion_dot": 3.01e-06,
        "meta_mean_motion_ddot": 0,
        "tle_line1": "1 35946U 09055A   25337.34229181  .00000301  00000+0  11472-3 0  9997",
        "tle_line2": "2 35946  98.4771  48.5579 0005442  89.3976 270.7835 14.37645626847500"
      },
      "geometry": {
        "type": "Point",
        "coordinates": [
          -123.88375883980592,
          40.53089519963877
        ]
      }
    }
  ]
}